JCSAT-5A                
1 29045U 06010A   21104.55994245 -.00000327  00000-0  00000-0 0  9991
2 29045   0.0358 117.4795 0002329 290.1659 128.9197  1.00271100 54817
ASTRA 1KR               
1 29055U 06012A   21103.67608233  .00000119  00000-0  00000+0 0  9992
2 29055   0.0192 146.7475 0001372 171.9944 145.8670  1.00273490 54799
EWS-G1 (GOES 13)        
1 29155U 06018A   21104.54581024  .00000037  00000-0  00000-0 0  9994
2 29155   0.2729 273.4866 0002353 310.2782 237.1761  1.00272568 24426
EUTELSAT 113 WEST A     
1 29162U 06020A   21104.54574042 -.00000035  00000-0  00000-0 0  9996
2 29162   0.0308 281.1073 0002778 109.4994 255.7843  1.00267322 54539
GALAXY 16 (G-16)        
1 29236U 06023A   21104.59436988 -.00000126  00000-0  00000-0 0  9993
2 29236   0.0243 268.6462 0002757 127.1861 282.1234  1.00276461 54024
EUTELSAT HOT BIRD 13B   
1 29270U 06032A   21104.53612706  .00000088  00000-0  00000-0 0  9995
2 29270   0.0736 347.8784 0004714  23.7714  37.2549  1.00272950 28353
JCSAT-3A                
1 29272U 06033A   21104.55907010 -.00000344  00000-0  00000-0 0  9991
2 29272   0.0416 103.5200 0002045 291.4673 137.2263  1.00271400 28794
SYRACUSE 3B             
1 29273U 06033B   21104.31716500 -.00000043  00000-0  00000-0 0  9994
2 29273   0.0240 209.2658 0004365 187.6849 274.7171  1.00269412 53758
KOREASAT 5 (MUGUNGWHA 5)
1 29349U 06034A   21104.55610407 -.00000357  00000-0  00000+0 0  9991
2 29349   0.0169 234.2161 0001993 213.8289  68.1606  1.00270841 53681
DIRECTV 9S              
1 29494U 06043A   21104.50428058 -.00000112  00000-0  00000-0 0  9996
2 29494   0.0246 155.0478 0003010 237.8546 250.3266  1.00272204 32435
OPTUS D1                
1 29495U 06043B   21104.61020785 -.00000109  00000-0  00000-0 0  9990
2 29495   0.0229 275.4695 0003397 106.9159 200.2833  1.00271881 53177
XM-4 (BLUES)            
1 29520U 06049A   21104.54477604 -.00000021  00000-0  00000-0 0  9996
2 29520   0.0226 227.5931 0000246 240.6705 175.5476  1.00268026 32527
BADR-4                  
1 29526U 06051A   21104.53874414  .00000146  00000-0  00000-0 0  9991
2 29526   0.0636 320.4246 0004509  46.4922  55.9753  1.00277311 32323
WILDBLUE-1              
1 29643U 06054A   21104.54766542 -.00000048  00000-0  00000-0 0  9999
2 29643   0.0172 139.2067 0001609 240.5702 269.1295  1.00272439 34841
AMC-18                  
1 29644U 06054B   21104.44522726 -.00000215  00000-0  00000-0 0  9999
2 29644   0.0517  76.3659 0002701 319.1768 244.5663  1.00275075 52612
MEASAT-3                
1 29648U 06056A   21104.55182951 -.00000241  00000-0  00000-0 0  9998
2 29648   0.0507 122.2971 0001774 309.6850  61.1413  1.00273564 31522
INSAT-4B                
1 30793U 07007A   21104.55060823 -.00000187  00000-0  00000-0 0  9990
2 30793   1.1670  94.2455 0004412 228.9396 163.4889  1.00271897 23265
SKYNET 5A               
1 30794U 07007B   21104.55252741 -.00000269  00000-0  00000-0 0  9994
2 30794   1.2869  90.7308 0003702 305.1387 101.1809  1.00270197 51752
ANIK F3                 
1 31102U 07009A   21104.54581295  .00000001  00000-0  00000-0 0  9991
2 31102   0.0284 232.2117 0002247 142.5678 265.9247  1.00268663 27612
ASTRA 1L                
1 31306U 07016A   21104.32205020  .00000120  00000-0  00000-0 0  9992
2 31306   0.0394 335.6770 0003836   8.3080 353.8328  1.00271854 26087
GALAXY 17 (G-17)        
1 31307U 07016B   21104.22104975 -.00000173  00000-0  00000-0 0  9998
2 31307   0.0436  78.2216 0003410 320.7653 152.1913  1.00270649 50869
ZHONGXING-6B            
1 31800U 07031A   21104.55662749 -.00000361  00000-0  00000-0 0  9996
2 31800   0.0169 233.1578 0003774 140.4987 145.1915  1.00272858 50489
DIRECTV 10              
1 31862U 07032A   21104.59246834 -.00000102  00000-0  00000-0 0  9995
2 31862   0.0484  64.3292 0000113  65.8204 183.3214  1.00272176 26662
SPACEWAY 3              
1 32018U 07036A   21104.44287189 -.00000150  00000-0  00000-0 0  9998
2 32018   0.0230  47.0552 0000212 276.8868 303.3602  1.00272384 27603
BSAT-3A                 
1 32019U 07036B   21104.63976366 -.00000349  00000-0  00000-0 0  9992
2 32019   0.0429 155.3739 0000401  99.4294 288.3832  1.00272026 31577
OPTUS D2                
1 32252U 07044A   21104.60397226 -.00000183  00000-0  00000-0 0  9995
2 32252   0.0171 204.5758 0003555 176.5329 191.3007  1.00269225 49626
INTELSAT 11 (IS-11)     
1 32253U 07044B   21104.41481434 -.00000267  00000-0  00000-0 0  9993
2 32253   0.0272 230.0606 0001747 158.3023 280.7819  1.00269349 49569
WGS F1 (USA 195)        
1 32258U 07046A   21104.31943312  .00000042  00000-0  00000-0 0  9997
2 32258   0.0155 234.4393 0000241 133.4766 315.7689  1.00273103 33426
STAR ONE C1             
1 32293U 07056A   21104.52059907 -.00000275  00000-0  00000-0 0  9997
2 32293   0.0282 276.3549 0002744 117.0153 291.9521  1.00271972 32827
SKYNET 5B               
1 32294U 07056B   21104.53856966  .00000144  00000-0  00000-0 0  9993
2 32294   0.4679  87.6950 0004038 300.7135  33.5064  1.00274596 49241
ASTRA 4A (SIRIUS 4)     
1 32299U 07057A   21104.31917141  .00000033  00000-0  00000-0 0  9995
2 32299   0.0661  79.9657 0002534 310.0695 292.3730  1.00272762 32728
HORIZONS 2              
1 32388U 07063B   21104.55052098 -.00000181  00000-0  00000-0 0  9993
2 32388   0.0139 269.6921 0002840 109.1210 107.1510  1.00271259 48871
THURAYA-3               
1 32404U 08001A   21104.33783990 -.00000300  00000-0  00000-0 0  9996
2 32404   3.8283  15.5658 0004672   1.8032  45.4691  1.00270932 48546
EXPRESS-AM33            
1 32478U 08003A   21104.40928608 -.00000280  00000-0  00000-0 0  9991
2 32478   0.0235 295.0031 0000745 171.2693 340.3303  1.00271795 34781
THOR 5                  
1 32487U 08006A   21104.31803734 -.00000008  00000-0  00000-0 0  9994
2 32487   0.0109 217.5523 0002412 171.6353 287.2517  1.00272414 48359
AMC-14                  
1 32708U 08011A   21104.03452073  .00000084  00000-0  00000+0 0  9993
2 32708  21.4327  43.5702 0045233   0.7071 188.5407  1.00275104 49145
DIRECTV 11              
1 32729U 08013A   21104.59436913 -.00000124  00000-0  00000+0 0  9990
2 32729   0.0238  46.0923 0000067  63.6983 207.9706  1.00271587 47980
ICO G1                  
1 32763U 08016A   21104.31071601 -.00000170  00000-0  00000-0 0  9992
2 32763   3.7355  18.7615 0002092   2.5022 200.4428  1.00271907 47590
VINASAT-1               
1 32767U 08018A   21104.55985521 -.00000327  00000-0  00000-0 0  9993
2 32767   0.0425  66.6057 0002133 353.3304 116.4869  1.00270620 47653
STAR ONE C2             
1 32768U 08018B   21104.27651071 -.00000264  00000-0  00000-0 0  9993
2 32768   0.0207 156.7523 0001565 265.1156 170.3460  1.00271699 47725
TIANLIAN 1-01           
1 32779U 08019A   21104.47776625 -.00000136  00000-0  00000-0 0  9999
2 32779   4.7818  71.1375 0033177 270.7813 112.8545  1.00272291 47529
AMOS-3                  
1 32794U 08022A   21104.31742669 -.00000035  00000-0  00000-0 0  9992
2 32794   0.0225 134.0028 0002079 235.8152 303.0340  1.00271288 63403
GALAXY 18 (G-18)        
1 32951U 08024A   21104.63379514  .00000027  00000-0  00000-0 0  9999
2 32951   0.0136 251.4493 0002790 131.7460 284.9731  1.00271731 26925
CHINASAT 9 (ZX 9)       
1 33051U 08028A   21104.55200399 -.00000246  00000-0  00000-0 0  9994
2 33051   0.0181 257.9563 0004109 139.8735  96.0188  1.00269510 47097
SKYNET 5C               
1 33055U 08030A   21104.27688372 -.00000138  00000-0  00000-0 0  9991
2 33055   0.0658  21.3238 0003617 356.8336 266.3820  1.00273279 47006
TURKSAT 3A              
1 33056U 08030B   21104.54197186  .00000147  00000-0  00000-0 0  9999
2 33056   0.0709  82.5886 0004677 313.4381  43.9796  1.00271551 33409
INTELSAT 25 (IS-25)     
1 33153U 08034A   21104.31193083 -.00000223  00000-0  00000-0 0  9994
2 33153   0.0179 239.7693 0002881 139.5608 264.1697  1.00273187 46749
BADR-6                  
1 33154U 08034B   21104.53874414  .00000146  00000-0  00000-0 0  9996
2 33154   0.0689  51.3334 0006237 354.2181  17.2912  1.00272509 46808
ECHOSTAR 11             
1 33207U 08035A   21104.54766595 -.00000055  00000-0  00000-0 0  9997
2 33207   0.0578  95.8888 0002474 276.8696 277.3372  1.00272066 32284
SUPERBIRD-C2            
1 33274U 08038A   21104.59849817 -.00000250  00000-0  00000-0 0  9995
2 33274   0.0328 120.2667 0001892 290.5391 151.5972  1.00272258 86783
AMC-21                  
1 33275U 08038B   21104.63283031  .00000038  00000-0  00000-0 0  9994
2 33275   0.0355  63.5157 0002277 316.8431 285.5739  1.00271751 46548
INMARSAT 4-F3           
1 33278U 08039A   21104.59515668 -.00000138  00000-0  00000-0 0  9999
2 33278   3.1940  15.3719 0002726  18.7705 285.0765  1.00272065 27604
NIMIQ 4                 
1 33373U 08044A   21104.61065617 -.00000219  00000-0  00000-0 0  9998
2 33373   0.0115 242.7558 0002605 136.4029 321.6796  1.00271996 46031
GALAXY 19 (G-19)        
1 33376U 08045A   21104.59629299 -.00000138  00000-0  00000+0 0  9990
2 33376   0.0146 208.0747 0002959 184.1887 288.3710  1.00269985 45889
ASTRA 1M                
1 33436U 08057A   21104.53734837  .00000121  00000-0  00000-0 0  9991
2 33436   0.0845  99.1433 0002526 333.4643 342.9293  1.00272186 26780
CIEL-2                  
1 33453U 08063A   21104.62992916  .00000060  00000-0  00000-0 0  9993
2 33453   0.0192 241.9664 0003243 157.1132 261.8582  1.00273011 45192
EUTELSAT HOT BIRD 13C   
1 33459U 08065A   21104.53612706  .00000088  00000-0  00000-0 0  9997
2 33459   0.0525  30.4682 0005026  14.7700   3.6636  1.00272938 28391
EUTELSAT 48D            
1 33460U 08065B   21104.31568198 -.00000100  00000-0  00000-0 0  9996
2 33460   0.3948  98.2017 0003373 278.0057 287.5907  1.00271419 45006
FENGYUN 2E              
1 33463U 08066A   21104.47907479 -.00000201  00000-0  00000-0 0  9998
2 33463   4.9676  67.4592 0003702 335.4150  59.1579  1.00273193 45145
